VICTUS HAZE PUMA        
1 69646U 26142A   26198.28484869  .00002209  00000+0  10157-3 0  9990
2 69646  97.4460  95.5636 0026410 259.4735 100.3525 15.21130484  4240
HOKUSHIN-1              
1 69648U 98067YH  26198.93454917  .00016907  00000+0  29194-3 0  9991
2 69648  51.6322 147.6394 0006143 339.6825  20.3919 15.51097383  4424
STARLINK-37656          
1 69649U 26143A   26198.08963685  .00025281  00000+0  46470-3 0  9992
2 69649  97.2849 241.9910 0000935 105.0816 255.0539 15.49208037  5170
STARLINK-37646          
1 69650U 26143B   26198.40359773 -.00159329  00000+0 -30305-2 0  9999
2 69650  97.2850 242.4838 0003494 139.4005 220.7507 15.48770998  5233
STARLINK-37749          
1 69651U 26143C   26198.86249226  .00044928  00000+0  82198-3 0  9995
2 69651  97.2841 242.9302 0000442 157.4682 202.6589 15.49226388  5303
STARLINK-37819          
1 69652U 26143D   26198.09895882  .00037410  00000+0  68551-3 0  9991
2 69652  97.2815 242.1313 0001683  91.4316 268.7128 15.49219289  5188
STARLINK-37729          
1 69653U 26143E   26198.91668981 -.02405843  00000+0 -19027-1 0  9996
2 69653  97.2847 243.4822 0001471  71.5079 313.4704 15.74836277  5394
STARLINK-37838          
1 69654U 26143F   26198.06935132  .00021920  00000+0  40327-3 0  9993
2 69654  97.2838 242.1737 0000879  65.1728 294.9614 15.49210925  5185
STARLINK-37884          
1 69655U 26143G   26198.91668981 -.02065965  00000+0 -52890-1 0  9990
2 69655  97.2837 242.9422 0001843  75.8611 103.4583 15.42962716  5392
STARLINK-37876          
1 69656U 26143H   26198.91668981 -.02848716  00000+0 -78160-1 0  9992
2 69656  97.2824 243.0265 0002381  41.0190 335.3039 15.40878617  5308
STARLINK-37784          
1 69657U 26143J   26198.09984513  .00023853  00000+0  43826-3 0  9990
2 69657  97.2853 242.1322 0001407 101.5269 258.6141 15.49231973  5119
STARLINK-37851          
1 69658U 26143K   26198.07193549  .00020222  00000+0  37230-3 0  9999
2 69658  97.2843 242.1702 0000622  94.0044 266.1279 15.49205906  5119
STARLINK-37229          
1 69659U 26143L   26198.91668981 -.02926706  00000+0 -75395-1 0  9998
2 69659  97.2852 242.9770 0001808 112.7927 153.2957 15.42865524  5332
STARLINK-37556          
1 69660U 26143M   26198.91668981  .00030330  00000+0  83886-3 0  9991
2 69660  97.2846 242.9562 0001167  80.9119 147.1519 15.36964957  5332
STARLINK-37867          
1 69661U 26143N   26198.91668981 -.03564331  00000+0 -11521+0 0  9993
2 69661  97.2845 243.0049 0001841  79.2471 242.3780 15.36135464  5303
STARLINK-37852          
1 69662U 26143P   26198.10395790  .00024473  00000+0  44996-3 0  9999
2 69662  97.2850 242.1269 0001251  85.5773 274.5621 15.49206865  5112
STARLINK-37554          
1 69663U 26143Q   26198.91668981  .00029378  00000+0  81345-3 0  9992
2 69663  97.2844 242.9821 0001439  94.8615 189.3249 15.36935685  5332
STARLINK-37830          
1 69664U 26143R   26198.91668981 -.02328435  00000+0 -62462-1 0  9990
2 69664  97.2845 242.9634 0002198  85.0622 145.4883 15.41412728  5295
STARLINK-37837          
1 69665U 26143S   26198.91668981  .00025074  00000+0  69453-3 0  9999
2 69665  97.2837 242.9479 0000849  80.3992 131.7281 15.36956618  5300
STARLINK-37943          
1 69666U 26143T   26198.41921019  .00021123  00000+0  38882-3 0  9992
2 69666  97.2841 242.4625 0001534  92.1336 268.0091 15.49202266  5163
STARLINK-37941          
1 69667U 26143U   26198.08361887  .00027772  00000+0  51017-3 0  9998
2 69667  97.2839 242.1529 0000900 102.7732 257.3620 15.49208253  5111
STARLINK-37930          
1 69668U 26143V   26198.08308824  .00029225  00000+0  53610-3 0  9997
2 69668  97.2839 242.1534 0001166 117.7877 242.3492 15.49238300  5116
STARLINK-37945          
1 69669U 26143W   26198.07018358  .00021140  00000+0  38917-3 0  9998
2 69669  97.2808 242.1687 0000806  71.0791 289.0547 15.49200166  5117
STARLINK-37948          
1 69670U 26143X   26198.11808789  .00010951  00000+0  20259-3 0  9998
2 69670  97.2838 242.1074 0000720 351.2853   8.8386 15.49208573  5117
STARLINK-37949          
1 69671U 26143Y   26198.54582933  .00022540  00000+0  41443-3 0  9991
2 69671  97.2847 242.5951 0000726 333.0142  27.1071 15.49223378  5183
STARLINK-37946          
1 69672U 26143Z   26198.40271669  .00013921  00000+0  25707-3 0  9996
2 69672  97.2849 242.4851 0000943  89.5484 270.5875 15.49200377  5165
TJS-26A                 
1 69674U 26144A   26193.29904564 -.00000341  00000+0  00000+0 0  9996
2 69674   6.9538 323.2302 0004208 347.4913 194.6526  1.00274367   198
CZ-7A R/B               
1 69675U 26144B   26198.73837562  .01345100  45801-4  14334-2 0  9990
2 69675  19.4386 313.7982 7052259 198.9731 108.4435  2.65384182   630
STARLINK-38005          
1 69677U 26145A   26198.52723260  .00175080  00000+0  11474-2 0  9995
2 69677  97.2832  45.4758 0001763 108.8579 251.2877 15.75257943  3548
STARLINK-38009          
1 69678U 26145B   26198.52546942  .00188004  00000+0  12302-2 0  9997
2 69678  97.2845  45.4791 0001598  97.5498 262.5949 15.75256704  3549
